SHIELDS 1               
1 43850U 18104B   22287.15897697  .00005615  00000+0  22679-3 0  9992
2 43850  85.0282 333.4201 0013798 178.1612 181.9685 15.24438188212587
STF-1                   
1 43852U 18104D   22288.14090614  .00019126  00000+0  67500-3 0  9992
2 43852  85.0302 332.6694 0012146 183.8160 176.2995 15.29046008212814
ZACUBE-2                
1 43907U 18111AH  22288.57292402  .00015185  00000+0  52781-3 0  9993
2 43907  97.1705 170.6166 0019911  18.3873  73.1381 15.29630518211649
LUME 1                  
1 43908U 18111AJ  22288.15349925  .00021761  00000+0  68516-3 0  9991
2 43908  97.1713 172.2385 0017874  13.6342 346.5380 15.32782610211714
AOBA VELOX-IV           
1 43940U 19003J   22287.82935301  .00061419  00000+0  13342-2 0  9990
2 43940  97.1155 320.5538 0016591  76.1927 284.1167 15.43999449208501
MOVE-IIB                
1 44398U 19038N   22287.85990450  .00029708  00000+0  13071-2 0  9999
2 44398  97.6416 258.5852 0022667  75.7628 284.6119 15.21581676181177
SONATE                  
1 44400U 19038Q   22288.59092094  .00010211  00000+0  53421-3 0  9995
2 44400  97.6499 257.7994 0024958  79.3176 281.0848 15.15771803181124
LUCKY-7                 
1 44406U 19038W   22288.44306505  .00011400  00000+0  57680-3 0  9992
2 44406  97.6544 258.3116 0024305  78.2670 282.1288 15.16933839181149
BEESAT 9                
1 44412U 19038AC  22287.92092001  .00018515  00000+0  88556-3 0  9994
2 44412  97.6505 258.3023 0021949  82.8112 277.5617 15.18827730180814
JAISAT-1                
1 44419U 19038F   22287.86947681  .00018536  00000+0  87528-3 0  9998
2 44419  97.6505 259.1801 0020805  80.2810 280.0772 15.19293238181173
DUCHIFAT-3              
1 44854U 19089C   22287.88055140  .00007791  00000+0  58955-3 0  9992
2 44854  36.9660 111.9567 0006298 105.5749 254.5644 15.01925338155898
EYESAT-NANO             
1 44877U 19092E   22288.50596529  .00019827  00000+0  79323-3 0  9997
2 44877  97.4638 112.2373 0010046 299.2325  60.7907 15.25075046156647
ORBITAL FACTORY 2 (OF-2)
1 45113U 19071C   22287.90463011  .00060535  00000+0  96412-3 0  9990
2 45113  51.6349 189.0665 0008153 233.8692 126.1544 15.52642700151887
M2 PATHFINDER           
1 45727U 20037E   22287.91766396  .00002907  00000+0  28937-3 0  9994
2 45727  97.7429 101.2793 0012913   5.3700 354.7635 14.92353534124648
NETSAT-4                
1 46504U 20068U   22287.35658863  .00007264  00000+0  52767-3 0  9998
2 46504  97.7281 227.0026 0009703 285.3392  74.6730 15.04130661111912
NETSAT-3                
1 46505U 20068V   22287.57511645  .00007687  00000+0  55886-3 0  9993
2 46505  97.7263 227.1224 0009239 292.2618  67.7610 15.04082934111959
NETSAT-1                
1 46506U 20068W   22287.52962318  .00006784  00000+0  49489-3 0  9995
2 46506  97.7273 226.9935 0008098 313.2619  46.7930 15.04009535111941
NETSAT-2                
1 46507U 20068X   22287.34092060  .00006948  00000+0  50680-3 0  9991
2 46507  97.7279 226.7976 0007865 325.2490  34.8218 15.04004353111863
SAI-1 NANOCONNECT-2     
1 47701U 21015C   22287.45638431  .00024814  00000+0  85141-3 0  9993
2 47701  97.4134   3.9415 0011084  38.5613 321.6418 15.30087657 90399
WILDTRACKCUBE-SIMBA     
1 47941U 21022K   22288.43452260  .00007448  00000+0  48416-3 0  9998
2 47941  97.5163 185.3636 0022770  95.9075 264.4660 15.08075967 86070
BEESAT-6                
1 47957U 21022AB  22288.22017968  .00013579  00000+0  83055-3 0  9994
2 47957  97.5133 185.5032 0021696  96.6156  55.1998 15.10157392 85861
SMOG-1                  
1 47964U 21022AJ  22288.19552853  .00015735  00000+0  92285-3 0  9996
2 47964  97.5155 186.7985 0020114  85.2892 275.0635 15.11672523 84968
MMSATS-1                
1 47976U 98067SJ  22288.57878326  .00055263  00000+0  54044-3 0  9991
2 47976  51.6373  79.2540 0000087 112.3268 340.7843 15.65592885 89038
BCCSAT-1                
1 48041U 21022AK  22288.25226400  .00013750  00000+0  83073-3 0  9996
2 48041  97.5161 186.3198 0017046  83.9964 276.3208 15.10677407 84919
BEESAT-5                
1 48083U 21022AM  22288.19867023  .00016279  00000+0  98490-3 0  9995
2 48083  97.5148 185.5010 0021862  97.6120  61.5713 15.10508949 84998
BEESAT-7                
1 48084U 21022AN  22287.48479814  .00015582  00000+0  94825-3 0  9998
2 48084  97.5121 184.8011 0022383 101.8983  72.5773 15.10295335 84470
BEESAT-8                
1 48085U 21022AP  22288.21966308  .00011408  00000+0  70166-3 0  9995
2 48085  97.5123 185.4986 0020987  95.6779  56.1240 15.10008187 85141
LEDSAT                  
1 49069U 21073D   22288.20109101  .00008018  00000+0  49898-3 0  9994
2 49069  97.5136 358.7153 0025214 242.5240 117.3425 15.09604592 63896
HSU-SAT1                
1 53462U 98067UB  22288.49901382  .00065366  00000+0  91879-3 0  9990
2 53462  51.6376  99.1610 0006139 351.9760   8.1133 15.56051785  9970
FUTABA                  
1 53463U 98067UC  22287.90428447  .00084364  00000+0  11399-2 0  9999
2 53463  51.6377 101.9384 0006077 343.6805  16.3990 15.57007506  9886
TUMNANOSAT              
1 53464U 98067UD  22287.56737992  .00110456  00000+0  14344-2 0  9995
2 53464  51.6371 103.4387 0006160 338.5639  21.5094 15.57943829  9837
